{"type":"FeatureCollection","features":[{"type":"Feature","properties":{"place_id":"2507000","place_name":"Boston city","kind":"place"},"geometry":{"type":"MultiPolygon","coordinates":[[[[-70.93091,42.321605],[-70.925969,42.321909],[-70.925308,42.317223],[-70.93076,42.319027],[-70.93091,42.321605]]],[[[-70.932091,42.332698],[-70.929717,42.333973],[-70.922598,42.326144],[-70.925883,42.324944],[-70.927698,42.327341],[-70.931414,42.328267],[-70.930809,42.331015],[-70.932091,42.332698]]],[[[-70.940749,42.328139],[-70.934947,42.326807],[-70.939854,42.324245],[-70.942948,42.325695],[-70.940749,42.328139]]],[[[-70.958094,42.31165],[-70.951492,42.313564],[-70.948515,42.311937],[-70.952399,42.31098],[-70.95434,42.308587],[-70.957835,42.309831],[-70.958094,42.31165]]],[[[-70.9673206591344,42.3572619496624],[-70.962365,42.354976],[-70.958599,42.35551],[-70.953292,42.349698],[-70.953022,42.343973],[-70.960047,42.346506],[-70.9700244514225,42.3552840314789],[-70.9673206591344,42.3572619496624]]],[[[-70.977402,42.312294],[-70.970392,42.316245],[-70.967545,42.322895],[-70.957268,42.331661],[-70.952805,42.330627],[-70.953693,42.327921],[-70.95913,42.324572],[-70.965732,42.313469],[-70.974273,42.310198],[-70.977219,42.310249],[-70.977402,42.312294]]],[[[-70.989162,42.328304],[-70.984243,42.3284],[-70.983078,42.327156],[-70.985667,42.318733],[-70.988774,42.319212],[-70.988903,42.32371],[-70.991621,42.326294],[-70.989162,42.328304]]],[[[-71.016643,42.313731],[-71.006364,42.320911],[-71.000305,42.321282],[-70.999534,42.31992],[-71.003251,42.319524],[-71.011487,42.309299],[-71.017179,42.311751],[-71.016643,42.313731]]],[[[-71.190904,42.283248],[-71.178636,42.294595],[-71.164702,42.30383],[-71.152211,42.29466],[-71.145967,42.297939],[-71.140135,42.302147],[-71.123711,42.322716],[-71.116537,42.323939],[-71.110808,42.335586],[-71.110597,42.340405],[-71.105516,42.343812],[-71.107213,42.347049],[-71.10657,42.349912],[-71.124697,42.35126],[-71.135155,42.346023],[-71.157036,42.33039],[-71.160917,42.333639],[-71.167565,42.333441],[-71.168936,42.338449],[-71.166699,42.340009],[-71.174798,42.350265],[-71.173935,42.353397],[-71.167625,42.360073],[-71.163888,42.358523],[-71.148332,42.361119],[-71.144492,42.364822],[-71.139892,42.36444],[-71.131971,42.369334],[-71.133101,42.372701],[-71.130997,42.373892],[-71.128203,42.373572],[-71.123204,42.368938],[-71.11723,42.367367],[-71.116902,42.355497],[-71.113196,42.35311],[-71.104316,42.352403],[-71.093002,42.353894],[-71.077334,42.359084],[-71.069478,42.369046],[-71.064059,42.369001],[-71.067115,42.371816],[-71.072466,42.372658],[-71.075657,42.380196],[-71.080932,42.382133],[-71.073496,42.391796],[-71.072696,42.390796],[-71.069322,42.394022],[-71.066944,42.394755],[-71.070896,42.388996],[-71.065695,42.386596],[-71.055295,42.387097],[-71.048186,42.385686],[-71.044298,42.383209],[-71.039262,42.386831],[-71.027712,42.384041],[-71.022672,42.386265],[-71.017794,42.390697],[-71.016094,42.395897],[-71.013395,42.397398],[-71.0056,42.393961],[-71.000683,42.396817],[-70.996767,42.396413],[-70.994454,42.393316],[-70.987974,42.392817],[-70.986621,42.387138],[-70.994239,42.384647],[-70.994648,42.38115],[-70.997994,42.378197],[-71.006123,42.376052],[-71.010363,42.365031],[-71.0016199959101,42.3646770423249],[-70.997719,42.360562],[-70.988035,42.36188],[-70.985317,42.358316],[-70.98955,42.354495],[-70.994337,42.353909],[-70.999577,42.356408],[-71.003741,42.356037],[-71.005579,42.347362],[-71.007807,42.347145],[-71.0277,42.358625],[-71.026916,42.363769],[-71.037999,42.363753],[-71.042626,42.367188],[-71.04466,42.372189],[-71.047018,42.37312],[-71.050598,42.372872],[-71.052642,42.370788],[-71.05048,42.368073],[-71.049673,42.356598],[-71.013895,42.34168],[-71.010177,42.337557],[-71.015664,42.330518],[-71.024151,42.333159],[-71.034704,42.328762],[-71.042333,42.330142],[-71.047648,42.328087],[-71.047426,42.323428],[-71.033099,42.316116],[-71.032777,42.313472],[-71.037293,42.310132],[-71.044832,42.309193],[-71.047616,42.303378],[-71.044495,42.301496],[-71.046786,42.298107],[-71.043697,42.292899],[-71.03988,42.292455],[-71.037974,42.288675],[-71.039306,42.285495],[-71.0381271228924,42.284715047516],[-71.041594,42.278098],[-71.04488,42.276266],[-71.049802,42.2781],[-71.053284,42.277502],[-71.055575,42.275052],[-71.053836,42.271699],[-71.062189,42.267159],[-71.064695,42.268607],[-71.065097,42.270659],[-71.067815,42.271396],[-71.082761,42.268634],[-71.089403,42.26969],[-71.090258,42.266639],[-71.093908,42.26714],[-71.097483,42.263089],[-71.103672,42.259723],[-71.11146,42.260769],[-71.11326,42.258926],[-71.109544,42.255412],[-71.109347,42.24799],[-71.126377,42.239162],[-71.122602,42.234515],[-71.130771,42.227926],[-71.142681,42.235998],[-71.146642,42.255755],[-71.152118,42.258247],[-71.158584,42.255155],[-71.174441,42.267343],[-71.173342,42.270849],[-71.174565,42.275576],[-71.176781,42.276799],[-71.183159,42.275913],[-71.185307,42.279497],[-71.19051,42.281648],[-71.190904,42.283248]]]]}}]}