{"type":"FeatureCollection","features":[{"type":"Feature","properties":{"city_id":"14460","city_name":"Boston-Cambridge-Newton, MA-NH","kind":"msa"},"geometry":{"type":"Polygon","coordinates":[[[-71.24733599999999,43.275231999999995],[-71.159364,43.355123],[-71.190799,43.515032999999995],[-71.127808,43.572787],[-71.111496,43.506709],[-71.089477,43.512691],[-71.08483799999999,43.506685999999995],[-71.067565,43.52724],[-71.037931,43.529826],[-71.024244,43.482912999999996],[-70.961941,43.540926999999996],[-70.95454,43.509707999999996],[-70.96752599999999,43.480945],[-70.97604,43.478428],[-70.96111599999999,43.469187999999995],[-70.96662599999999,43.451274],[-70.96087299999999,43.438891999999996],[-70.987118,43.412678],[-70.98594299999999,43.380055],[-70.973232,43.349073],[-70.955852,43.333997],[-70.931178,43.336545],[-70.924387,43.32385],[-70.911417,43.319722999999996],[-70.912607,43.307584],[-70.89634099999999,43.298550999999996],[-70.906564,43.292035999999996],[-70.88361499999999,43.283438],[-70.883341,43.27323],[-70.85746,43.255812],[-70.842827,43.254225],[-70.837929,43.242438],[-70.81758599999999,43.237874999999995],[-70.80953099999999,43.224706999999995],[-70.819282,43.192992],[-70.828255,43.187788999999995],[-70.82356899999999,43.174239],[-70.83361,43.146105999999996],[-70.82708,43.127395],[-70.756412,43.080177],[-70.70631,43.075339],[-70.701197,43.04524],[-70.630714,42.985285999999995],[-70.61115199999999,42.978989999999996],[-70.587593,42.949188],[-70.57509399999999,42.917125999999996],[-70.610659,42.912529],[-70.655109,42.922098999999996],[-70.680933,42.936873999999996],[-70.694395,42.956754],[-70.726024,42.928523999999996],[-70.727966,42.890935999999996],[-70.74883,42.858830999999995],[-70.73487399999999,42.824476999999995],[-70.737225,42.787956],[-70.71432399999999,42.731911],[-70.70258,42.724162],[-70.62594299999999,42.739723999999995],[-70.549306,42.724163999999995],[-70.51393399999999,42.680594],[-70.502143,42.635470999999995],[-70.521793,42.593458999999996],[-70.60629,42.53122],[-70.690393,42.278999],[-70.688704,42.263467999999996],[-70.684061,42.253836],[-70.640113,42.228372],[-70.63633,42.202903],[-70.642946,42.178185],[-70.608381,42.138479],[-70.32252199999999,42.117914999999996],[-70.355004,42.000104],[-70.499473,41.844117],[-70.565281,41.786705],[-70.632555,41.762904],[-70.620785,41.74753],[-70.67662899999999,41.691129],[-70.709133,41.625105999999995],[-70.75242399999999,41.565850999999995],[-70.813367,41.608025],[-70.839175,41.614761],[-70.886439,41.760231999999995],[-70.904438,41.758],[-70.921782,41.791244],[-71.026288,41.778887999999995],[-71.014591,41.799568],[-71.03657,41.816525],[-70.973717,41.860879],[-70.995908,41.926352],[-71.04948499999999,41.963094],[-71.080483,42.095538999999995],[-71.364344,41.985293],[-71.381299,41.985084],[-71.381401,42.018798],[-71.49825899999999,42.017272],[-71.495282,42.099958],[-71.503078,42.110459],[-71.478522,42.131378],[-71.478027,42.165870999999996],[-71.497378,42.166643],[-71.50262599999999,42.191416],[-71.55573799999999,42.182503],[-71.556782,42.19245],[-71.58291,42.195558999999996],[-71.602221,42.218101],[-71.586759,42.259544999999996],[-71.556658,42.268131],[-71.506091,42.264393],[-71.485948,42.311228],[-71.486797,42.330189],[-71.551126,42.326395],[-71.58521,42.310952],[-71.60410399999999,42.336831],[-71.62582499999999,42.349723999999995],[-71.58015,42.386998],[-71.60425099999999,42.397703],[-71.5591,42.411943],[-71.54339399999999,42.466452],[-71.560367,42.47435],[-71.52984099999999,42.519841],[-71.53878,42.543029999999995],[-71.580287,42.550467],[-71.59464799999999,42.543375999999995],[-71.61992699999999,42.552502],[-71.635885,42.540001],[-71.635869,42.524024],[-71.678969,42.530429999999996],[-71.66460099999999,42.611598],[-71.775755,42.64423],[-71.775325,42.636663],[-71.85848299999999,42.633815],[-71.85775699999999,42.674982],[-71.897103,42.703728],[-71.89877299999999,42.711312],[-71.294637,42.697041999999996],[-71.245481,42.742514],[-71.26008999999999,42.755734],[-71.351035,42.772183],[-71.352958,42.783161],[-71.364524,42.785351],[-71.36067899999999,42.798961999999996],[-71.3872,42.823558999999996],[-71.427067,42.824839999999995],[-71.45123099999999,42.930437999999995],[-71.375435,42.939318],[-71.402962,43.041053999999995],[-71.392235,43.039285],[-71.24733599999999,43.275231999999995]]]}}]}